STARLINK-5205           
1 54202U 22141AX  25365.20632203  .00000019  00000+0  19287-4 0  9992
2 54202  53.2182 301.2399 0001613  83.0231 277.0945 15.08843751175662
STARLINK-5247           
1 54203U 22141AY  25365.15112953  .00000452  00000+0  46489-4 0  9997
2 54203  53.2190 301.6058 0001260  88.6437 271.4700 15.08842798175651
STARLINK-5241           
1 54204U 22141AZ  25365.19526107  .00001573  00000+0  11692-3 0  9994
2 54204  53.2180 301.1745 0001198  93.5042 266.6087 15.08836086175664
STARLINK-5249           
1 54205U 22141BA  25365.13640363  .00000334  00000+0  39076-4 0  9991
2 54205  53.2190 301.5188 0001240  87.8912 272.2222 15.08837237175653
STARLINK-5264           
1 54206U 22141BB  25365.01635365  .00005235  00000+0  34682-3 0  9997
2 54206  53.2163 267.2457 0000916  78.2918 281.8177 15.08831902176121
STARLINK-5262           
1 54207U 22141BC  25365.06646581  .00001271  00000+0  97940-4 0  9998
2 54207  53.2193 301.7937 0001320 103.5400 256.5739 15.08838519175640
STARLINK-5255           
1 54208U 22141BD  25365.17001626  .00000727  00000+0  63772-4 0  9997
2 54208  53.2198 276.7642 0001503 101.4339 258.6822 15.08841699176001
STARLINK-5259           
1 54209U 22141BE  25365.07108144  .00005915  00000+0  38966-3 0  9990
2 54209  53.2181 291.8207 0001115  95.0288 265.0832 15.08815053175781
STARLINK-5464           
1 54758U 22175A   25365.24455713  .00000297  00000+0  36727-4 0  9994
2 54758  53.2176 346.5759 0001343  83.2235 276.8910 15.08837502169657
STARLINK-5215           
1 54759U 22175B   25365.24823925  .00001600  00000+0  11861-3 0  9999
2 54759  53.2192 346.5953 0001362  99.5481 260.5665 15.08841448169657
STARLINK-5220           
1 54760U 22175C   25365.24594024  .00002595  00000+0  18109-3 0  9992
2 54760  53.2180 351.5681 0001441  93.9347 266.1810 15.08834261169588
STARLINK-5202           
1 54761U 22175D   25365.18338050  .00000658  00000+0  59401-4 0  9990
2 54761  53.2179 351.8876 0001468  87.1563 272.9597 15.08839740169573
STARLINK-5214           
1 54762U 22175E   25365.23488018  .00001181  00000+0  92255-4 0  9993
2 54762  53.2186 351.5016 0001138  92.3452 267.7671 15.08838560169589
STARLINK-5191           
1 54763U 22175F   25365.24225663  .00001416  00000+0  10705-3 0  9990
2 54763  53.2186 351.5426 0001621  96.7495 263.3682 15.08838174169582
STARLINK-5458           
1 54764U 22175G   25365.28734692  .00000308  00000+0  37417-4 0  9991
2 54764  53.2201 351.1189 0001520  85.7644 274.3522 15.08839070169597
STARLINK-5471           
1 54766U 22175J   25365.29374978  .00001246  00000+0  96371-4 0  9997
2 54766  53.2188 351.1579 0001176  91.6622 268.4505 15.08842774169595
