[{"OBJECT_NAME":"STARLINK-5205","OBJECT_ID":"2022-141AX","EPOCH":"2025-12-31T04:57:06.223392","MEAN_MOTION":15.08843751,"ECCENTRICITY":0.00016137,"INCLINATION":53.2182,"RA_OF_ASC_NODE":301.2399,"ARG_OF_PERICENTER":83.0231,"MEAN_ANOMALY":277.0945,"EPHEMERIS_TYPE":0,"CLASSIFICATION_TYPE":"U","NORAD_CAT_ID":54202,"ELEMENT_SET_NO":999,"REV_AT_EPOCH":17566,"BSTAR":1.9286664e-5,"MEAN_MOTION_DOT":1.9e-7,"MEAN_MOTION_DDOT":0},{"OBJECT_NAME":"STARLINK-5247","OBJECT_ID":"2022-141AY","EPOCH":"2025-12-31T03:37:37.591392","MEAN_MOTION":15.08842798,"ECCENTRICITY":0.00012604,"INCLINATION":53.219,"RA_OF_ASC_NODE":301.6058,"ARG_OF_PERICENTER":88.6437,"MEAN_ANOMALY":271.47,"EPHEMERIS_TYPE":0,"CLASSIFICATION_TYPE":"U","NORAD_CAT_ID":54203,"ELEMENT_SET_NO":999,"REV_AT_EPOCH":17565,"BSTAR":4.6489042e-5,"MEAN_MOTION_DOT":4.52e-6,"MEAN_MOTION_DDOT":0},{"OBJECT_NAME":"STARLINK-5241","OBJECT_ID":"2022-141AZ","EPOCH":"2025-12-31T04:41:10.556448","MEAN_MOTION":15.08836086,"ECCENTRICITY":0.00011985,"INCLINATION":53.218,"RA_OF_ASC_NODE":301.1745,"ARG_OF_PERICENTER":93.5042,"MEAN_ANOMALY":266.6087,"EPHEMERIS_TYPE":0,"CLASSIFICATION_TYPE":"U","NORAD_CAT_ID":54204,"ELEMENT_SET_NO":999,"REV_AT_EPOCH":17566,"BSTAR":0.00011691742,"MEAN_MOTION_DOT":1.573e-5,"MEAN_MOTION_DDOT":0},{"OBJECT_NAME":"STARLINK-5249","OBJECT_ID":"2022-141BA","EPOCH":"2025-12-31T03:16:25.273632","MEAN_MOTION":15.08837237,"ECCENTRICITY":0.00012402,"INCLINATION":53.219,"RA_OF_ASC_NODE":301.5188,"ARG_OF_PERICENTER":87.8912,"MEAN_ANOMALY":272.2222,"EPHEMERIS_TYPE":0,"CLASSIFICATION_TYPE":"U","NORAD_CAT_ID":54205,"ELEMENT_SET_NO":999,"REV_AT_EPOCH":17565,"BSTAR":3.9076158e-5,"MEAN_MOTION_DOT":3.34e-6,"MEAN_MOTION_DDOT":0},{"OBJECT_NAME":"STARLINK-5264","OBJECT_ID":"2022-141BB","EPOCH":"2025-12-31T00:23:32.955360","MEAN_MOTION":15.08831902,"ECCENTRICITY":9.168e-5,"INCLINATION":53.2163,"RA_OF_ASC_NODE":267.2457,"ARG_OF_PERICENTER":78.2918,"MEAN_ANOMALY":281.8177,"EPHEMERIS_TYPE":0,"CLASSIFICATION_TYPE":"U","NORAD_CAT_ID":54206,"ELEMENT_SET_NO":999,"REV_AT_EPOCH":17612,"BSTAR":0.00034681922,"MEAN_MOTION_DOT":5.235e-5,"MEAN_MOTION_DDOT":0},{"OBJECT_NAME":"STARLINK-5262","OBJECT_ID":"2022-141BC","EPOCH":"2025-12-31T01:35:42.645984","MEAN_MOTION":15.08838519,"ECCENTRICITY":0.00013207,"INCLINATION":53.2193,"RA_OF_ASC_NODE":301.7937,"ARG_OF_PERICENTER":103.54,"MEAN_ANOMALY":256.5739,"EPHEMERIS_TYPE":0,"CLASSIFICATION_TYPE":"U","NORAD_CAT_ID":54207,"ELEMENT_SET_NO":999,"REV_AT_EPOCH":17564,"BSTAR":9.7940137e-5,"MEAN_MOTION_DOT":1.271e-5,"MEAN_MOTION_DDOT":0},{"OBJECT_NAME":"STARLINK-5255","OBJECT_ID":"2022-141BD","EPOCH":"2025-12-31T04:04:49.404864","MEAN_MOTION":15.08841699,"ECCENTRICITY":0.00015038,"INCLINATION":53.2198,"RA_OF_ASC_NODE":276.7642,"ARG_OF_PERICENTER":101.4339,"MEAN_ANOMALY":258.6822,"EPHEMERIS_TYPE":0,"CLASSIFICATION_TYPE":"U","NORAD_CAT_ID":54208,"ELEMENT_SET_NO":999,"REV_AT_EPOCH":17600,"BSTAR":6.3772014e-5,"MEAN_MOTION_DOT":7.27e-6,"MEAN_MOTION_DDOT":0},{"OBJECT_NAME":"STARLINK-5259","OBJECT_ID":"2022-141BE","EPOCH":"2025-12-31T01:42:21.436416","MEAN_MOTION":15.08815053,"ECCENTRICITY":0.00011159,"INCLINATION":53.2181,"RA_OF_ASC_NODE":291.8207,"ARG_OF_PERICENTER":95.0288,"MEAN_ANOMALY":265.0832,"EPHEMERIS_TYPE":0,"CLASSIFICATION_TYPE":"U","NORAD_CAT_ID":54209,"ELEMENT_SET_NO":999,"REV_AT_EPOCH":17578,"BSTAR":0.00038966296,"MEAN_MOTION_DOT":5.915e-5,"MEAN_MOTION_DDOT":0},{"OBJECT_NAME":"STARLINK-5464","OBJECT_ID":"2022-175A","EPOCH":"2025-12-31T05:52:09.736032","MEAN_MOTION":15.08837502,"ECCENTRICITY":0.00013436,"INCLINATION":53.2176,"RA_OF_ASC_NODE":346.5759,"ARG_OF_PERICENTER":83.2235,"MEAN_ANOMALY":276.891,"EPHEMERIS_TYPE":0,"CLASSIFICATION_TYPE":"U","NORAD_CAT_ID":54758,"ELEMENT_SET_NO":999,"REV_AT_EPOCH":16965,"BSTAR":3.6726956e-5,"MEAN_MOTION_DOT":2.97e-6,"MEAN_MOTION_DDOT":0},{"OBJECT_NAME":"STARLINK-5215","OBJECT_ID":"2022-175B","EPOCH":"2025-12-31T05:57:27.871200","MEAN_MOTION":15.08841448,"ECCENTRICITY":0.00013626,"INCLINATION":53.2192,"RA_OF_ASC_NODE":346.5953,"ARG_OF_PERICENTER":99.5481,"MEAN_ANOMALY":260.5665,"EPHEMERIS_TYPE":0,"CLASSIFICATION_TYPE":"U","NORAD_CAT_ID":54759,"ELEMENT_SET_NO":999,"REV_AT_EPOCH":16965,"BSTAR":0.00011860832,"MEAN_MOTION_DOT":1.6e-5,"MEAN_MOTION_DDOT":0},{"OBJECT_NAME":"STARLINK-5220","OBJECT_ID":"2022-175C","EPOCH":"2025-12-31T05:54:09.236736","MEAN_MOTION":15.08834261,"ECCENTRICITY":0.00014417,"INCLINATION":53.218,"RA_OF_ASC_NODE":351.5681,"ARG_OF_PERICENTER":93.9347,"MEAN_ANOMALY":266.181,"EPHEMERIS_TYPE":0,"CLASSIFICATION_TYPE":"U","NORAD_CAT_ID":54760,"ELEMENT_SET_NO":999,"REV_AT_EPOCH":16958,"BSTAR":0.00018109323,"MEAN_MOTION_DOT":2.595e-5,"MEAN_MOTION_DDOT":0},{"OBJECT_NAME":"STARLINK-5202","OBJECT_ID":"2022-175D","EPOCH":"2025-12-31T04:24:04.075200","MEAN_MOTION":15.0883974,"ECCENTRICITY":0.00014688,"INCLINATION":53.2179,"RA_OF_ASC_NODE":351.8876,"ARG_OF_PERICENTER":87.1563,"MEAN_ANOMALY":272.9597,"EPHEMERIS_TYPE":0,"CLASSIFICATION_TYPE":"U","NORAD_CAT_ID":54761,"ELEMENT_SET_NO":999,"REV_AT_EPOCH":16957,"BSTAR":5.9400937e-5,"MEAN_MOTION_DOT":6.58e-6,"MEAN_MOTION_DDOT":0},{"OBJECT_NAME":"STARLINK-5214","OBJECT_ID":"2022-175E","EPOCH":"2025-12-31T05:38:13.647552","MEAN_MOTION":15.0883856,"ECCENTRICITY":0.0001138,"INCLINATION":53.2186,"RA_OF_ASC_NODE":351.5016,"ARG_OF_PERICENTER":92.3452,"MEAN_ANOMALY":267.7671,"EPHEMERIS_TYPE":0,"CLASSIFICATION_TYPE":"U","NORAD_CAT_ID":54762,"ELEMENT_SET_NO":999,"REV_AT_EPOCH":16958,"BSTAR":9.2254979e-5,"MEAN_MOTION_DOT":1.181e-5,"MEAN_MOTION_DDOT":0},{"OBJECT_NAME":"STARLINK-5191","OBJECT_ID":"2022-175F","EPOCH":"2025-12-31T05:48:50.972832","MEAN_MOTION":15.08838174,"ECCENTRICITY":0.00016219,"INCLINATION":53.2186,"RA_OF_ASC_NODE":351.5426,"ARG_OF_PERICENTER":96.7495,"MEAN_ANOMALY":263.3682,"EPHEMERIS_TYPE":0,"CLASSIFICATION_TYPE":"U","NORAD_CAT_ID":54763,"ELEMENT_SET_NO":999,"REV_AT_EPOCH":16958,"BSTAR":0.00010705254,"MEAN_MOTION_DOT":1.416e-5,"MEAN_MOTION_DDOT":0},{"OBJECT_NAME":"STARLINK-5458","OBJECT_ID":"2022-175G","EPOCH":"2025-12-31T06:53:46.773888","MEAN_MOTION":15.0883907,"ECCENTRICITY":0.00015202,"INCLINATION":53.2201,"RA_OF_ASC_NODE":351.1189,"ARG_OF_PERICENTER":85.7644,"MEAN_ANOMALY":274.3522,"EPHEMERIS_TYPE":0,"CLASSIFICATION_TYPE":"U","NORAD_CAT_ID":54764,"ELEMENT_SET_NO":999,"REV_AT_EPOCH":16959,"BSTAR":3.7416919e-5,"MEAN_MOTION_DOT":3.08e-6,"MEAN_MOTION_DDOT":0},{"OBJECT_NAME":"STARLINK-5471","OBJECT_ID":"2022-175J","EPOCH":"2025-12-31T07:02:59.980992","MEAN_MOTION":15.08842774,"ECCENTRICITY":0.00011766,"INCLINATION":53.2188,"RA_OF_ASC_NODE":351.1579,"ARG_OF_PERICENTER":91.6622,"MEAN_ANOMALY":268.4505,"EPHEMERIS_TYPE":0,"CLASSIFICATION_TYPE":"U","NORAD_CAT_ID":54766,"ELEMENT_SET_NO":999,"REV_AT_EPOCH":16959,"BSTAR":9.6371023e-5,"MEAN_MOTION_DOT":1.246e-5,"MEAN_MOTION_DDOT":0}]
